{
  "type": "FeatureCollection",
  "features": [
    {
      "type": "Feature",
      "properties": {
        "norad_id": 31205,
        "name": "FENGYUN 1C DEB",
        "group": "fengyun-1c-debris",
        "lat": 62.775759574386385,
        "lon": 60.865945451993234,
        "alt_km": 886.8069551813078,
        "timestamp": "2025-12-12T03:50:52.698269+00:00",
        "meta_object_name": "FENGYUN 1C DEB",
        "meta_object_id": "1999-025BKK",
        "meta_epoch": "2025-12-08T16:54:13.993632",
        "meta_mean_motion": 14.23952534,
        "meta_eccentricity": 0.01617006,
        "meta_inclination": 99.2293,
        "meta_ra_of_asc_node": 75.6624,
        "meta_arg_of_pericenter": 208.9841,
        "meta_mean_anomaly": 150.2285,
        "meta_ephemeris_type": 0,
        "meta_classification_type": "U",
        "meta_norad_cat_id": 31205,
        "meta_element_set_no": 999,
        "meta_rev_at_epoch": 97153,
        "meta_bstar": 0.00033027217,
        "meta_mean_motion_dot": 8.17e-06,
        "meta_mean_motion_ddot": 0,
        "tle_line1": "1 31205U 99025BKK 25342.70432863  .00000817  00000+0  33027-3 0  9998",
        "tle_line2": "2 31205  99.2293  75.6624 0161700 208.9841 150.2285 14.23952534971530"
      },
      "geometry": {
        "type": "Point",
        "coordinates": [
          60.865945451993234,
          62.775759574386385
        ]
      }
    },
    {
      "type": "Feature",
      "properties": {
        "norad_id": 31206,
        "name": "FENGYUN 1C DEB",
        "group": "fengyun-1c-debris",
        "lat": 52.391670595742205,
        "lon": -117.59355459304327,
        "alt_km": 715.8164634283976,
        "timestamp": "2025-12-12T03:50:52.698279+00:00",
        "meta_object_name": "FENGYUN 1C DEB",
        "meta_object_id": "1999-025BKL",
        "meta_epoch": "2025-12-11T14:16:06.730176",
        "meta_mean_motion": 14.40491145,
        "meta_eccentricity": 0.00779431,
        "meta_inclination": 98.843,
        "meta_ra_of_asc_node": 253.4812,
        "meta_arg_of_pericenter": 5.1995,
        "meta_mean_anomaly": 354.9984,
        "meta_ephemeris_type": 0,
        "meta_classification_type": "U",
        "meta_norad_cat_id": 31206,
        "meta_element_set_no": 999,
        "meta_rev_at_epoch": 97829,
        "meta_bstar": 0.0012094014,
        "meta_mean_motion_dot": 3.941e-05,
        "meta_mean_motion_ddot": 0,
        "tle_line1": "1 31206U 99025BKL 25345.59452234  .00003941  00000+0  12094-2 0  9994",
        "tle_line2": "2 31206  98.8430 253.4812 0077943   5.1995 354.9984 14.40491145978290"
      },
      "geometry": {
        "type": "Point",
        "coordinates": [
          -117.59355459304327,
          52.391670595742205
        ]
      }
    },
    {
      "type": "Feature",
      "properties": {
        "norad_id": 31208,
        "name": "FENGYUN 1C DEB",
        "group": "fengyun-1c-debris",
        "lat": -66.16948879003897,
        "lon": -71.83166604456642,
        "alt_km": 683.9087267472678,
        "timestamp": "2025-12-12T03:50:52.698289+00:00",
        "meta_object_name": "FENGYUN 1C DEB",
        "meta_object_id": "1999-025BKN",
        "meta_epoch": "2025-12-11T08:46:58.282176",
        "meta_mean_motion": 14.6176931,
        "meta_eccentricity": 0.00161125,
        "meta_inclination": 99.2393,
        "meta_ra_of_asc_node": 128.9066,
        "meta_arg_of_pericenter": 271.7077,
        "meta_mean_anomaly": 118.2708,
        "meta_ephemeris_type": 0,
        "meta_classification_type": "U",
        "meta_norad_cat_id": 31208,
        "meta_element_set_no": 999,
        "meta_rev_at_epoch": 70459,
        "meta_bstar": 0.0059342116,
        "meta_mean_motion_dot": 0.00029728,
        "meta_mean_motion_ddot": 0,
        "tle_line1": "1 31208U 99025BKN 25345.36595234  .00029728  00000+0  59342-2 0  9997",
        "tle_line2": "2 31208  99.2393 128.9066 0016112 271.7077 118.2708 14.61769310704595"
      },
      "geometry": {
        "type": "Point",
        "coordinates": [
          -71.83166604456642,
          -66.16948879003897
        ]
      }
    },
    {
      "type": "Feature",
      "properties": {
        "norad_id": 31209,
        "name": "FENGYUN 1C DEB",
        "group": "fengyun-1c-debris",
        "lat": 51.216685136909625,
        "lon": -87.56291253740116,
        "alt_km": 754.2058372085658,
        "timestamp": "2025-12-12T03:50:52.698299+00:00",
        "meta_object_name": "FENGYUN 1C DEB",
        "meta_object_id": "1999-025BKP",
        "meta_epoch": "2025-12-10T01:20:54.721824",
        "meta_mean_motion": 14.43402924,
        "meta_eccentricity": 0.00214737,
        "meta_inclination": 98.8828,
        "meta_ra_of_asc_node": 79.0207,
        "meta_arg_of_pericenter": 353.1421,
        "meta_mean_anomaly": 6.9471,
        "meta_ephemeris_type": 0,
        "meta_classification_type": "U",
        "meta_norad_cat_id": 31209,
        "meta_element_set_no": 999,
        "meta_rev_at_epoch": 64769,
        "meta_bstar": 0.0038121705,
        "meta_mean_motion_dot": 0.00012883,
        "meta_mean_motion_ddot": 0,
        "tle_line1": "1 31209U 99025BKP 25344.05618891  .00012883  00000+0  38122-2 0  9995",
        "tle_line2": "2 31209  98.8828  79.0207 0021473 353.1421   6.9471 14.43402924647693"
      },
      "geometry": {
        "type": "Point",
        "coordinates": [
          -87.56291253740116,
          51.216685136909625
        ]
      }
    },
    {
      "type": "Feature",
      "properties": {
        "norad_id": 31210,
        "name": "FENGYUN 1C DEB",
        "group": "fengyun-1c-debris",
        "lat": 55.43645347542836,
        "lon": -25.66417233281104,
        "alt_km": 849.3993324579787,
        "timestamp": "2025-12-12T03:50:52.698309+00:00",
        "meta_object_name": "FENGYUN 1C DEB",
        "meta_object_id": "1999-025BKQ",
        "meta_epoch": "2025-12-11T11:19:06.709152",
        "meta_mean_motion": 14.11994038,
        "meta_eccentricity": 0.00170964,
        "meta_inclination": 98.7187,
        "meta_ra_of_asc_node": 346.5366,
        "meta_arg_of_pericenter": 158.6297,
        "meta_mean_anomaly": 359.0795,
        "meta_ephemeris_type": 0,
        "meta_classification_type": "U",
        "meta_norad_cat_id": 31210,
        "meta_element_set_no": 999,
        "meta_rev_at_epoch": 95949,
        "meta_bstar": 0.00055192367,
        "meta_mean_motion_dot": 9.69e-06,
        "meta_mean_motion_ddot": 0,
        "tle_line1": "1 31210U 99025BKQ 25345.47160543  .00000969  00000+0  55192-3 0  9999",
        "tle_line2": "2 31210  98.7187 346.5366 0017096 158.6297 359.0795 14.11994038959497"
      },
      "geometry": {
        "type": "Point",
        "coordinates": [
          -25.66417233281104,
          55.43645347542836
        ]
      }
    },
    {
      "type": "Feature",
      "properties": {
        "norad_id": 31211,
        "name": "FENGYUN 1C DEB",
        "group": "fengyun-1c-debris",
        "lat": -9.693476408517213,
        "lon": -159.4135642558612,
        "alt_km": 834.7122071659269,
        "timestamp": "2025-12-12T03:50:52.698319+00:00",
        "meta_object_name": "FENGYUN 1C DEB",
        "meta_object_id": "1999-025BKR",
        "meta_epoch": "2025-12-06T20:08:03.397344",
        "meta_mean_motion": 14.2001942,
        "meta_eccentricity": 0.00510218,
        "meta_inclination": 98.6728,
        "meta_ra_of_asc_node": 16.8654,
        "meta_arg_of_pericenter": 106.1714,
        "meta_mean_anomaly": 254.5086,
        "meta_ephemeris_type": 0,
        "meta_classification_type": "U",
        "meta_norad_cat_id": 31211,
        "meta_element_set_no": 999,
        "meta_rev_at_epoch": 63209,
        "meta_bstar": 0.001766209,
        "meta_mean_motion_dot": 3.766e-05,
        "meta_mean_motion_ddot": 0,
        "tle_line1": "1 31211U 99025BKR 25340.83892821  .00003766  00000+0  17662-2 0  9993",
        "tle_line2": "2 31211  98.6728  16.8654 0051021 106.1714 254.5086 14.20019420632092"
      },
      "geometry": {
        "type": "Point",
        "coordinates": [
          -159.4135642558612,
          -9.693476408517213
        ]
      }
    },
    {
      "type": "Feature",
      "properties": {
        "norad_id": 31212,
        "name": "FENGYUN 1C DEB",
        "group": "fengyun-1c-debris",
        "lat": -1.9796626695316513,
        "lon": -162.7037477813498,
        "alt_km": 798.7900163530612,
        "timestamp": "2025-12-12T03:50:52.698330+00:00",
        "meta_object_name": "FENGYUN 1C DEB",
        "meta_object_id": "1999-025BKS",
        "meta_epoch": "2025-11-25T01:25:48.692640",
        "meta_mean_motion": 14.12981607,
        "meta_eccentricity": 0.00745379,
        "meta_inclination": 99.223,
        "meta_ra_of_asc_node": 0.0078,
        "meta_arg_of_pericenter": 220.8092,
        "meta_mean_anomaly": 138.7482,
        "meta_ephemeris_type": 0,
        "meta_classification_type": "U",
        "meta_norad_cat_id": 31212,
        "meta_element_set_no": 999,
        "meta_rev_at_epoch": 95409,
        "meta_bstar": 0.0015990818,
        "meta_mean_motion_dot": 3.014e-05,
        "meta_mean_motion_ddot": 0,
        "tle_line1": "1 31212U 99025BKS 25329.05959135  .00003014  00000+0  15991-2 0  9996",
        "tle_line2": "2 31212  99.2230   0.0078 0074537 220.8092 138.7482 14.12981607954099"
      },
      "geometry": {
        "type": "Point",
        "coordinates": [
          -162.7037477813498,
          -1.9796626695316513
        ]
      }
    }
  ]
}